[{"COMMENT":"GENERATED VIA SPACETRACK.ORG API","ORIGINATOR":"18 SPCS","NORAD_CAT_ID":"43477","OBJECT_NAME":"GRACE-FO 2","OBJECT_TYPE":"PAYLOAD","CLASSIFICATION_TYPE":"U","INTLDES":"18047B","EPOCH":"2023-10-13 22:20:44","EPOCH_MICROSECONDS":"938752","MEAN_MOTION":"15.2706115","ECCENTRICITY":"0.0011154","INCLINATION":"88.9865","RA_OF_ASC_NODE":"333.0445","ARG_OF_PERICENTER":"308.3097","MEAN_ANOMALY":"51.7149","EPHEMERIS_TYPE":"0","ELEMENT_SET_NO":"999","REV_AT_EPOCH":"30011","BSTAR":"0.00023413","MEAN_MOTION_DOT":"0.0000625","MEAN_MOTION_DDOT":"0","FILE":"4033175","TLE_LINE0":"0 GRACE-FO 2","TLE_LINE1":"1 43477U 18047B   23286.93107568  .00006250  00000-0  23413-3 0  9994","TLE_LINE2":"2 43477  88.9865 333.0445 0011154 308.3097  51.7149 15.27061150300115","OBJECT_ID":"2018-047B","OBJECT_NUMBER":"43477","SEMIMAJOR_AXIS":"6862.740","PERIOD":"94.299","APOGEE":"492.260","PERIGEE":"476.950","DECAYED":"0"},{"COMMENT":"GENERATED VIA SPACETRACK.ORG API","ORIGINATOR":"18 SPCS","NORAD_CAT_ID":"43477","OBJECT_NAME":"GRACE-FO 2","OBJECT_TYPE":"PAYLOAD","CLASSIFICATION_TYPE":"U","INTLDES":"18047B","EPOCH":"2023-10-14 04:38:12","EPOCH_MICROSECONDS":"462720","MEAN_MOTION":"15.27063332","ECCENTRICITY":"0.0011118","INCLINATION":"88.9863","RA_OF_ASC_NODE":"333.0087","ARG_OF_PERICENTER":"307.0712","MEAN_ANOMALY":"52.952","EPHEMERIS_TYPE":"0","ELEMENT_SET_NO":"999","REV_AT_EPOCH":"30015","BSTAR":"0.00021545","MEAN_MOTION_DOT":"0.00005753","MEAN_MOTION_DDOT":"0","FILE":"4033195","TLE_LINE0":"0 GRACE-FO 2","TLE_LINE1":"1 43477U 18047B   23287.19319980  .00005753  00000-0  21545-3 0  9997","TLE_LINE2":"2 43477  88.9863 333.0087 0011118 307.0712  52.9520 15.27063332300159","OBJECT_ID":"2018-047B","OBJECT_NUMBER":"43477","SEMIMAJOR_AXIS":"6862.734","PERIOD":"94.299","APOGEE":"492.229","PERIGEE":"476.969","DECAYED":"0"},{"COMMENT":"GENERATED VIA SPACETRACK.ORG API","ORIGINATOR":"18 SPCS","NORAD_CAT_ID":"43477","OBJECT_NAME":"GRACE-FO 2","OBJECT_TYPE":"PAYLOAD","CLASSIFICATION_TYPE":"U","INTLDES":"18047B","EPOCH":"2023-10-14 14:04:23","EPOCH_MICROSECONDS":"675232","MEAN_MOTION":"15.27067157","ECCENTRICITY":"0.0011069","INCLINATION":"88.9862","RA_OF_ASC_NODE":"332.9551","ARG_OF_PERICENTER":"305.2376","MEAN_ANOMALY":"54.7836","EPHEMERIS_TYPE":"0","ELEMENT_SET_NO":"999","REV_AT_EPOCH":"30021","BSTAR":"0.00020217","MEAN_MOTION_DOT":"0.00005401","MEAN_MOTION_DDOT":"0","FILE":"4033811","TLE_LINE0":"0 GRACE-FO 2","TLE_LINE1":"1 43477U 18047B   23287.58638513  .00005401  00000-0  20217-3 0  9991","TLE_LINE2":"2 43477  88.9862 332.9551 0011069 305.2376  54.7836 15.27067157300219","OBJECT_ID":"2018-047B","OBJECT_NUMBER":"43477","SEMIMAJOR_AXIS":"6862.722","PERIOD":"94.298","APOGEE":"492.184","PERIGEE":"476.991","DECAYED":"0"},{"COMMENT":"GENERATED VIA SPACETRACK.ORG API","ORIGINATOR":"18 SPCS","NORAD_CAT_ID":"43477","OBJECT_NAME":"GRACE-FO 2","OBJECT_TYPE":"PAYLOAD","CLASSIFICATION_TYPE":"U","INTLDES":"18047B","EPOCH":"2023-10-14 21:56:12","EPOCH_MICROSECONDS":"954912","MEAN_MOTION":"15.27070074","ECCENTRICITY":"0.0011031","INCLINATION":"88.9861","RA_OF_ASC_NODE":"332.9105","ARG_OF_PERICENTER":"303.6522","MEAN_ANOMALY":"56.3674","EPHEMERIS_TYPE":"0","ELEMENT_SET_NO":"999","REV_AT_EPOCH":"30026","BSTAR":"0.00019122","MEAN_MOTION_DOT":"0.0000511","MEAN_MOTION_DDOT":"0","FILE":"4034164","TLE_LINE0":"0 GRACE-FO 2","TLE_LINE1":"1 43477U 18047B   23287.91403883  .00005110  00000-0  19122-3 0  9998","TLE_LINE2":"2 43477  88.9861 332.9105 0011031 303.6522  56.3674 15.27070074300262","OBJECT_ID":"2018-047B","OBJECT_NUMBER":"43477","SEMIMAJOR_AXIS":"6862.713","PERIOD":"94.298","APOGEE":"492.149","PERIGEE":"477.008","DECAYED":"0"},{"COMMENT":"GENERATED VIA SPACETRACK.ORG API","ORIGINATOR":"18 SPCS","NORAD_CAT_ID":"43477","OBJECT_NAME":"GRACE-FO 2","OBJECT_TYPE":"PAYLOAD","CLASSIFICATION_TYPE":"U","INTLDES":"18047B","EPOCH":"2023-10-15 10:31:07","EPOCH_MICROSECONDS":"696128","MEAN_MOTION":"15.27074819","ECCENTRICITY":"0.0010983","INCLINATION":"88.9859","RA_OF_ASC_NODE":"332.839","ARG_OF_PERICENTER":"301.1641","MEAN_ANOMALY":"58.8531","EPHEMERIS_TYPE":"0","ELEMENT_SET_NO":"999","REV_AT_EPOCH":"30034","BSTAR":"0.00018134","MEAN_MOTION_DOT":"0.00004849","MEAN_MOTION_DDOT":"0","FILE":"4034524","TLE_LINE0":"0 GRACE-FO 2","TLE_LINE1":"1 43477U 18047B   23288.43828352  .00004849  00000-0  18134-3 0  9998","TLE_LINE2":"2 43477  88.9859 332.8390 0010983 301.1641  58.8531 15.27074819300343","OBJECT_ID":"2018-047B","OBJECT_NUMBER":"43477","SEMIMAJOR_AXIS":"6862.699","PERIOD":"94.298","APOGEE":"492.102","PERIGEE":"477.027","DECAYED":"0"},{"COMMENT":"GENERATED VIA SPACETRACK.ORG API","ORIGINATOR":"18 SPCS","NORAD_CAT_ID":"43477","OBJECT_NAME":"GRACE-FO 2","OBJECT_TYPE":"PAYLOAD","CLASSIFICATION_TYPE":"U","INTLDES":"18047B","EPOCH":"2023-10-15 13:39:51","EPOCH_MICROSECONDS":"370848","MEAN_MOTION":"15.27075549","ECCENTRICITY":"0.0010972","INCLINATION":"88.9858","RA_OF_ASC_NODE":"332.8211","ARG_OF_PERICENTER":"300.543","MEAN_ANOMALY":"59.4736","EPHEMERIS_TYPE":"0","ELEMENT_SET_NO":"999","REV_AT_EPOCH":"30036","BSTAR":"0.00017332","MEAN_MOTION_DOT":"0.00004635","MEAN_MOTION_DDOT":"0","FILE":"4034787","TLE_LINE0":"0 GRACE-FO 2","TLE_LINE1":"1 43477U 18047B   23288.56934457  .00004635  00000-0  17332-3 0  9998","TLE_LINE2":"2 43477  88.9858 332.8211 0010972 300.5430  59.4736 15.27075549300368","OBJECT_ID":"2018-047B","OBJECT_NUMBER":"43477","SEMIMAJOR_AXIS":"6862.697","PERIOD":"94.298","APOGEE":"492.092","PERIGEE":"477.032","DECAYED":"0"},{"COMMENT":"GENERATED VIA SPACETRACK.ORG API","ORIGINATOR":"18 SPCS","NORAD_CAT_ID":"43477","OBJECT_NAME":"GRACE-FO 2","OBJECT_TYPE":"PAYLOAD","CLASSIFICATION_TYPE":"U","INTLDES":"18047B","EPOCH":"2023-10-15 21:31:40","EPOCH_MICROSECONDS":"506240","MEAN_MOTION":"15.27078294","ECCENTRICITY":"0.0010937","INCLINATION":"88.9857","RA_OF_ASC_NODE":"332.7765","ARG_OF_PERICENTER":"299.0109","MEAN_ANOMALY":"61.0043","EPHEMERIS_TYPE":"0","ELEMENT_SET_NO":"999","REV_AT_EPOCH":"30041","BSTAR":"0.00016913","MEAN_MOTION_DOT":"0.00004524","MEAN_MOTION_DDOT":"0","FILE":"4035078","TLE_LINE0":"0 GRACE-FO 2","TLE_LINE1":"1 43477U 18047B   23288.89699660  .00004524  00000-0  16913-3 0  9999","TLE_LINE2":"2 43477  88.9857 332.7765 0010937 299.0109  61.0043 15.27078294300412","OBJECT_ID":"2018-047B","OBJECT_NUMBER":"43477","SEMIMAJOR_AXIS":"6862.689","PERIOD":"94.298","APOGEE":"492.060","PERIGEE":"477.048","DECAYED":"0"},{"COMMENT":"GENERATED VIA SPACETRACK.ORG API","ORIGINATOR":"18 SPCS","NORAD_CAT_ID":"43477","OBJECT_NAME":"GRACE-FO 2","OBJECT_TYPE":"PAYLOAD","CLASSIFICATION_TYPE":"U","INTLDES":"18047B","EPOCH":"2023-10-16 14:49:40","EPOCH_MICROSECONDS":"447200","MEAN_MOTION":"15.27084238","ECCENTRICITY":"0.0010879","INCLINATION":"88.9855","RA_OF_ASC_NODE":"332.6782","ARG_OF_PERICENTER":"295.6642","MEAN_ANOMALY":"64.3483","EPHEMERIS_TYPE":"0","ELEMENT_SET_NO":"999","REV_AT_EPOCH":"30052","BSTAR":"0.00016438","MEAN_MOTION_DOT":"0.00004399","MEAN_MOTION_DDOT":"0","FILE":"4036830","TLE_LINE0":"0 GRACE-FO 2","TLE_LINE1":"1 43477U 18047B   23289.61782925  .00004399  00000-0  16438-3 0  9999","TLE_LINE2":"2 43477  88.9855 332.6782 0010879 295.6642  64.3483 15.27084238300528","OBJECT_ID":"2018-047B","OBJECT_NUMBER":"43477","SEMIMAJOR_AXIS":"6862.671","PERIOD":"94.297","APOGEE":"492.002","PERIGEE":"477.070","DECAYED":"0"},{"COMMENT":"GENERATED VIA SPACETRACK.ORG API","ORIGINATOR":"18 SPCS","NORAD_CAT_ID":"43477","OBJECT_NAME":"GRACE-FO 2","OBJECT_TYPE":"PAYLOAD","CLASSIFICATION_TYPE":"U","INTLDES":"18047B","EPOCH":"2023-10-16 17:58:24","EPOCH_MICROSECONDS":"45888","MEAN_MOTION":"15.27085377","ECCENTRICITY":"0.0010866","INCLINATION":"88.9854","RA_OF_ASC_NODE":"332.6602","ARG_OF_PERICENTER":"295.0209","MEAN_ANOMALY":"64.9911","EPHEMERIS_TYPE":"0","ELEMENT_SET_NO":"999","REV_AT_EPOCH":"30054","BSTAR":"0.00016503","MEAN_MOTION_DOT":"0.00004416","MEAN_MOTION_DDOT":"0","FILE":"4036986","TLE_LINE0":"0 GRACE-FO 2","TLE_LINE1":"1 43477U 18047B   23289.74888942  .00004416  00000-0  16503-3 0  9992","TLE_LINE2":"2 43477  88.9854 332.6602 0010866 295.0209  64.9911 15.27085377300546","OBJECT_ID":"2018-047B","OBJECT_NUMBER":"43477","SEMIMAJOR_AXIS":"6862.668","PERIOD":"94.297","APOGEE":"491.990","PERIGEE":"477.076","DECAYED":"0"},{"COMMENT":"GENERATED VIA SPACETRACK.ORG API","ORIGINATOR":"18 SPCS","NORAD_CAT_ID":"43477","OBJECT_NAME":"GRACE-FO 2","OBJECT_TYPE":"PAYLOAD","CLASSIFICATION_TYPE":"U","INTLDES":"18047B","EPOCH":"2023-10-16 21:07:07","EPOCH_MICROSECONDS":"635936","MEAN_MOTION":"15.27086566","ECCENTRICITY":"0.0010858","INCLINATION":"88.9853","RA_OF_ASC_NODE":"332.6423","ARG_OF_PERICENTER":"294.4164","MEAN_ANOMALY":"65.5952","EPHEMERIS_TYPE":"0","ELEMENT_SET_NO":"999","REV_AT_EPOCH":"30056","BSTAR":"0.00016724","MEAN_MOTION_DOT":"0.00004475","MEAN_MOTION_DDOT":"0","FILE":"4037312","TLE_LINE0":"0 GRACE-FO 2","TLE_LINE1":"1 43477U 18047B   23289.87994949  .00004475  00000-0  16724-3 0  9991","TLE_LINE2":"2 43477  88.9853 332.6423 0010858 294.4164  65.5952 15.27086566300565","OBJECT_ID":"2018-047B","OBJECT_NUMBER":"43477","SEMIMAJOR_AXIS":"6862.664","PERIOD":"94.297","APOGEE":"491.980","PERIGEE":"477.078","DECAYED":"0"}]